STARLINK-33911          
1 63777U 25091C   25242.75633184  .00031288  00000+0  11409-2 0  9997
2 63777  43.0072  43.6591 0000411 304.9448  55.1365 15.27603918 19786
STARLINK-33938          
1 63778U 25091D   25242.90670335  .00051438  00000+0  18645-2 0  9992
2 63778  43.0030  50.0368 0001650 271.6946  88.3716 15.27601339 19811
STARLINK-33881          
1 63779U 25091E   25242.73496130  .00044671  00000+0  16221-2 0  9992
2 63779  43.0041  51.3288 0001784 280.8571  79.2080 15.27598267 19697
STARLINK-33846          
1 63780U 25091F   25242.52851989  .00033910  00000+0  12366-2 0  9998
2 63780  43.0035  52.3583 0000983 269.3359  90.7380 15.27567075 19714
STARLINK-33883          
1 63781U 25091G   25242.52466581  .00038016  00000+0  13843-2 0  9992
2 63781  43.0032  52.3299 0001122 292.8374  67.2359 15.27570519 19666
STARLINK-33842          
1 63782U 25091H   25242.83748509  .00036179  00000+0  13181-2 0  9993
2 63782  43.0026  50.3794 0002002 283.8124  76.2504 15.27573243 19804
STARLINK-33892          
1 63783U 25091J   25242.83617779  .00028635  00000+0  10461-2 0  9994
2 63783  42.9995  50.3636 0001839 273.2599  86.8042 15.27578829 19718
STARLINK-33933          
1 63784U 25091K   25242.51022722  .00031170  00000+0  11392-2 0  9990
2 63784  43.0022  45.2664 0000793 252.5312 107.5453 15.27529048 19858
STARLINK-33906          
1 63785U 25091L   25242.77850054  .00033224  00000+0  12113-2 0  9990
2 63785  42.9969  50.7885 0001040 274.9338  85.1395 15.27582500 19651
STARLINK-33923          
1 63786U 25091M   25242.77721491  .00030240  00000+0  11035-2 0  9990
2 63786  43.0031  50.7839 0001357 269.1077  90.9619 15.27594371 19652
STARLINK-33947          
1 63787U 25091N   25242.73367257  .00033561  00000+0  12232-2 0  9992
2 63787  43.0058  51.3200 0001758 277.3604  82.7048 15.27589962 19692
STARLINK-33882          
1 63788U 25091P   25242.83488913  .00044210  00000+0  16051-2 0  9993
2 63788  43.0012  50.3496 0001610 272.8693  87.1974 15.27608036 19707
STARLINK-33875          
1 63789U 25091Q   25242.75793414  .00040637  00000+0  14779-2 0  9994
2 63789  43.0006  50.6273 0001741 271.9829  88.0824 15.27585602 19700
STARLINK-33869          
1 63790U 25091R   25242.55535137  .00040211  00000+0  14628-2 0  9991
2 63790  43.0017  51.6877 0001074 262.3889  97.6840 15.27580180 19625
STARLINK-33935          
1 63791U 25091S   25242.20672264  .00034483  00000+0  12564-2 0  9998
2 63791  43.0059  54.2435 0002775 267.8529  92.2005 15.27586565 19729
STARLINK-33916          
1 63792U 25091T   25242.52980445  .00036030  00000+0  13129-2 0  9995
2 63792  43.0040  52.3666 0001060 260.8462  99.2270 15.27567578 19667
