[{"OBJECT_NAME":"STARLINK-33911","OBJECT_ID":"2025-091C","EPOCH":"2025-08-30T18:09:07.070976","MEAN_MOTION":15.27603918,"ECCENTRICITY":4.115e-5,"INCLINATION":43.0072,"RA_OF_ASC_NODE":43.6591,"ARG_OF_PERICENTER":304.9448,"MEAN_ANOMALY":55.1365,"EPHEMERIS_TYPE":0,"CLASSIFICATION_TYPE":"U","NORAD_CAT_ID":63777,"ELEMENT_SET_NO":999,"REV_AT_EPOCH":1978,"BSTAR":0.0011408583,"MEAN_MOTION_DOT":0.00031288,"MEAN_MOTION_DDOT":0},{"OBJECT_NAME":"STARLINK-33938","OBJECT_ID":"2025-091D","EPOCH":"2025-08-30T21:45:39.169440","MEAN_MOTION":15.27601339,"ECCENTRICITY":0.00016509,"INCLINATION":43.003,"RA_OF_ASC_NODE":50.0368,"ARG_OF_PERICENTER":271.6946,"MEAN_ANOMALY":88.3716,"EPHEMERIS_TYPE":0,"CLASSIFICATION_TYPE":"U","NORAD_CAT_ID":63778,"ELEMENT_SET_NO":999,"REV_AT_EPOCH":1981,"BSTAR":0.0018645114,"MEAN_MOTION_DOT":0.00051438,"MEAN_MOTION_DDOT":0},{"OBJECT_NAME":"STARLINK-33881","OBJECT_ID":"2025-091E","EPOCH":"2025-08-30T17:38:20.656320","MEAN_MOTION":15.27598267,"ECCENTRICITY":0.00017847,"INCLINATION":43.0041,"RA_OF_ASC_NODE":51.3288,"ARG_OF_PERICENTER":280.8571,"MEAN_ANOMALY":79.208,"EPHEMERIS_TYPE":0,"CLASSIFICATION_TYPE":"U","NORAD_CAT_ID":63779,"ELEMENT_SET_NO":999,"REV_AT_EPOCH":1969,"BSTAR":0.0016221088,"MEAN_MOTION_DOT":0.00044671,"MEAN_MOTION_DDOT":0},{"OBJECT_NAME":"STARLINK-33846","OBJECT_ID":"2025-091F","EPOCH":"2025-08-30T12:41:04.118496","MEAN_MOTION":15.27567075,"ECCENTRICITY":9.838e-5,"INCLINATION":43.0035,"RA_OF_ASC_NODE":52.3583,"ARG_OF_PERICENTER":269.3359,"MEAN_ANOMALY":90.738,"EPHEMERIS_TYPE":0,"CLASSIFICATION_TYPE":"U","NORAD_CAT_ID":63780,"ELEMENT_SET_NO":999,"REV_AT_EPOCH":1971,"BSTAR":0.0012366182,"MEAN_MOTION_DOT":0.0003391,"MEAN_MOTION_DDOT":0},{"OBJECT_NAME":"STARLINK-33883","OBJECT_ID":"2025-091G","EPOCH":"2025-08-30T12:35:31.125984","MEAN_MOTION":15.27570519,"ECCENTRICITY":0.00011228,"INCLINATION":43.0032,"RA_OF_ASC_NODE":52.3299,"ARG_OF_PERICENTER":292.8374,"MEAN_ANOMALY":67.2359,"EPHEMERIS_TYPE":0,"CLASSIFICATION_TYPE":"U","NORAD_CAT_ID":63781,"ELEMENT_SET_NO":999,"REV_AT_EPOCH":1966,"BSTAR":0.0013842903,"MEAN_MOTION_DOT":0.00038016,"MEAN_MOTION_DDOT":0},{"OBJECT_NAME":"STARLINK-33842","OBJECT_ID":"2025-091H","EPOCH":"2025-08-30T20:05:58.711776","MEAN_MOTION":15.27573243,"ECCENTRICITY":0.00020021,"INCLINATION":43.0026,"RA_OF_ASC_NODE":50.3794,"ARG_OF_PERICENTER":283.8124,"MEAN_ANOMALY":76.2504,"EPHEMERIS_TYPE":0,"CLASSIFICATION_TYPE":"U","NORAD_CAT_ID":63782,"ELEMENT_SET_NO":999,"REV_AT_EPOCH":1980,"BSTAR":0.0013180623,"MEAN_MOTION_DOT":0.00036179,"MEAN_MOTION_DDOT":0},{"OBJECT_NAME":"STARLINK-33892","OBJECT_ID":"2025-091J","EPOCH":"2025-08-30T20:04:05.761056","MEAN_MOTION":15.27578829,"ECCENTRICITY":0.00018393,"INCLINATION":42.9995,"RA_OF_ASC_NODE":50.3636,"ARG_OF_PERICENTER":273.2599,"MEAN_ANOMALY":86.8042,"EPHEMERIS_TYPE":0,"CLASSIFICATION_TYPE":"U","NORAD_CAT_ID":63783,"ELEMENT_SET_NO":999,"REV_AT_EPOCH":1971,"BSTAR":0.0010460958,"MEAN_MOTION_DOT":0.00028635,"MEAN_MOTION_DDOT":0},{"OBJECT_NAME":"STARLINK-33933","OBJECT_ID":"2025-091K","EPOCH":"2025-08-30T12:14:43.631808","MEAN_MOTION":15.27529048,"ECCENTRICITY":7.93e-5,"INCLINATION":43.0022,"RA_OF_ASC_NODE":45.2664,"ARG_OF_PERICENTER":252.5312,"MEAN_ANOMALY":107.5453,"EPHEMERIS_TYPE":0,"CLASSIFICATION_TYPE":"U","NORAD_CAT_ID":63784,"ELEMENT_SET_NO":999,"REV_AT_EPOCH":1985,"BSTAR":0.0011392029,"MEAN_MOTION_DOT":0.0003117,"MEAN_MOTION_DDOT":0},{"OBJECT_NAME":"STARLINK-33906","OBJECT_ID":"2025-091L","EPOCH":"2025-08-30T18:41:02.446656","MEAN_MOTION":15.275825,"ECCENTRICITY":0.00010406,"INCLINATION":42.9969,"RA_OF_ASC_NODE":50.7885,"ARG_OF_PERICENTER":274.9338,"MEAN_ANOMALY":85.1395,"EPHEMERIS_TYPE":0,"CLASSIFICATION_TYPE":"U","NORAD_CAT_ID":63785,"ELEMENT_SET_NO":999,"REV_AT_EPOCH":1965,"BSTAR":0.0012113351,"MEAN_MOTION_DOT":0.00033224,"MEAN_MOTION_DDOT":0},{"OBJECT_NAME":"STARLINK-33923","OBJECT_ID":"2025-091M","EPOCH":"2025-08-30T18:39:11.368224","MEAN_MOTION":15.27594371,"ECCENTRICITY":0.00013575,"INCLINATION":43.0031,"RA_OF_ASC_NODE":50.7839,"ARG_OF_PERICENTER":269.1077,"MEAN_ANOMALY":90.9619,"EPHEMERIS_TYPE":0,"CLASSIFICATION_TYPE":"U","NORAD_CAT_ID":63786,"ELEMENT_SET_NO":999,"REV_AT_EPOCH":1965,"BSTAR":0.0011034516,"MEAN_MOTION_DOT":0.0003024,"MEAN_MOTION_DDOT":0},{"OBJECT_NAME":"STARLINK-33947","OBJECT_ID":"2025-091N","EPOCH":"2025-08-30T17:36:29.310048","MEAN_MOTION":15.27589962,"ECCENTRICITY":0.00017585,"INCLINATION":43.0058,"RA_OF_ASC_NODE":51.32,"ARG_OF_PERICENTER":277.3604,"MEAN_ANOMALY":82.7048,"EPHEMERIS_TYPE":0,"CLASSIFICATION_TYPE":"U","NORAD_CAT_ID":63787,"ELEMENT_SET_NO":999,"REV_AT_EPOCH":1969,"BSTAR":0.0012231767,"MEAN_MOTION_DOT":0.00033561,"MEAN_MOTION_DDOT":0},{"OBJECT_NAME":"STARLINK-33882","OBJECT_ID":"2025-091P","EPOCH":"2025-08-30T20:02:14.420832","MEAN_MOTION":15.27608036,"ECCENTRICITY":0.00016103,"INCLINATION":43.0012,"RA_OF_ASC_NODE":50.3496,"ARG_OF_PERICENTER":272.8693,"MEAN_ANOMALY":87.1974,"EPHEMERIS_TYPE":0,"CLASSIFICATION_TYPE":"U","NORAD_CAT_ID":63788,"ELEMENT_SET_NO":999,"REV_AT_EPOCH":1970,"BSTAR":0.0016050903,"MEAN_MOTION_DOT":0.0004421,"MEAN_MOTION_DDOT":0},{"OBJECT_NAME":"STARLINK-33875","OBJECT_ID":"2025-091Q","EPOCH":"2025-08-30T18:11:25.509696","MEAN_MOTION":15.27585602,"ECCENTRICITY":0.00017411,"INCLINATION":43.0006,"RA_OF_ASC_NODE":50.6273,"ARG_OF_PERICENTER":271.9829,"MEAN_ANOMALY":88.0824,"EPHEMERIS_TYPE":0,"CLASSIFICATION_TYPE":"U","NORAD_CAT_ID":63789,"ELEMENT_SET_NO":999,"REV_AT_EPOCH":1970,"BSTAR":0.0014778626,"MEAN_MOTION_DOT":0.00040637,"MEAN_MOTION_DDOT":0},{"OBJECT_NAME":"STARLINK-33869","OBJECT_ID":"2025-091R","EPOCH":"2025-08-30T13:19:42.358368","MEAN_MOTION":15.2758018,"ECCENTRICITY":0.00010742,"INCLINATION":43.0017,"RA_OF_ASC_NODE":51.6877,"ARG_OF_PERICENTER":262.3889,"MEAN_ANOMALY":97.684,"EPHEMERIS_TYPE":0,"CLASSIFICATION_TYPE":"U","NORAD_CAT_ID":63790,"ELEMENT_SET_NO":999,"REV_AT_EPOCH":1962,"BSTAR":0.0014628059,"MEAN_MOTION_DOT":0.00040211,"MEAN_MOTION_DDOT":0},{"OBJECT_NAME":"STARLINK-33935","OBJECT_ID":"2025-091S","EPOCH":"2025-08-30T04:57:40.836096","MEAN_MOTION":15.27586565,"ECCENTRICITY":0.00027752,"INCLINATION":43.0059,"RA_OF_ASC_NODE":54.2435,"ARG_OF_PERICENTER":267.8529,"MEAN_ANOMALY":92.2005,"EPHEMERIS_TYPE":0,"CLASSIFICATION_TYPE":"U","NORAD_CAT_ID":63791,"ELEMENT_SET_NO":999,"REV_AT_EPOCH":1972,"BSTAR":0.0012564396,"MEAN_MOTION_DOT":0.00034483,"MEAN_MOTION_DDOT":0},{"OBJECT_NAME":"STARLINK-33916","OBJECT_ID":"2025-091T","EPOCH":"2025-08-30T12:42:55.104480","MEAN_MOTION":15.27567578,"ECCENTRICITY":0.00010602,"INCLINATION":43.004,"RA_OF_ASC_NODE":52.3666,"ARG_OF_PERICENTER":260.8462,"MEAN_ANOMALY":99.227,"EPHEMERIS_TYPE":0,"CLASSIFICATION_TYPE":"U","NORAD_CAT_ID":63792,"ELEMENT_SET_NO":999,"REV_AT_EPOCH":1966,"BSTAR":0.0013129353,"MEAN_MOTION_DOT":0.0003603,"MEAN_MOTION_DDOT":0}]
